[
    {
        "CCSDS_OMM_VERS": "3.0",
        "COMMENT": "GENERATED VIA SPACE-TRACK.ORG API",
        "CREATION_DATE": "2025-05-04T02:26:54",
        "ORIGINATOR": "18 SPCS",
        "OBJECT_NAME": "NAVSTAR 82 (USA 343)",
        "OBJECT_ID": "2023-009A",
        "CENTER_NAME": "EARTH",
        "REF_FRAME": "TEME",
        "TIME_SYSTEM": "UTC",
        "MEAN_ELEMENT_THEORY": "SGP4",
        "EPOCH": "2025-05-03T16:56:34.276128",
        "MEAN_MOTION": "2.00571723",
        "ECCENTRICITY": "0.00028790",
        "INCLINATION": "55.0905",
        "RA_OF_ASC_NODE": "164.5993",
        "ARG_OF_PERICENTER": "329.3415",
        "MEAN_ANOMALY": "91.2560",
        "EPHEMERIS_TYPE": "0",
        "CLASSIFICATION_TYPE": "U",
        "NORAD_CAT_ID": "55268",
        "ELEMENT_SET_NO": "999",
        "REV_AT_EPOCH": "1703",
        "BSTAR": "0.00000000000000",
        "MEAN_MOTION_DOT": "0.00000021",
        "MEAN_MOTION_DDOT": "0.0000000000000",
        "SEMIMAJOR_AXIS": "26559.631",
        "PERIOD": "717.948",
        "APOAPSIS": "20189.143",
        "PERIAPSIS": "20173.850",
        "OBJECT_TYPE": "PAYLOAD",
        "RCS_SIZE": "LARGE",
        "COUNTRY_CODE": "US",
        "LAUNCH_DATE": "2023-01-18",
        "SITE": "AFETR",
        "DECAY_DATE": null,
        "FILE": "4718307",
        "GP_ID": "286805730",
        "TLE_LINE0": "0 NAVSTAR 82 (USA 343)",
        "TLE_LINE1": "1 55268U 23009A   25123.70595227  .00000021  00000-0  00000-0 0  9993",
        "TLE_LINE2": "2 55268  55.0905 164.5993 0002879 329.3415  91.2560  2.00571723 17033"
    }
]